STARLINK-33601          
1 62768U 25015L   25243.89517858  .00045648  00000+0  15440-2 0  9991
2 62768  53.1575 123.9685 0000866  85.1728 274.9372 15.30198323 35425
STARLINK-33569          
1 62769U 25015M   25243.94360118  .00027549  00000+0  93901-3 0  9992
2 62769  53.1581 123.5613 0001447  49.4815 310.6311 15.30193329 35439
STARLINK-33594          
1 62770U 25015N   25243.93622219  .00069422  00000+0  23325-2 0  9994
2 62770  53.1593 123.5146 0000952  92.6421 267.4689 15.30223581 35439
STARLINK-33598          
1 62771U 25015P   25243.94571653  .00021410  00000+0  73296-3 0  9999
2 62771  53.1583 123.5689 0001207  76.4710 283.6425 15.30198257 35435
STARLINK-33600          
1 62772U 25015Q   25243.85518812  .00056997  00000+0  19197-2 0  9995
2 62772  53.1593 124.4286 0001050  99.3386 260.7734 15.30236342 35414
STARLINK-33567          
1 62773U 25015R   25243.95732689  .00016638  00000+0  57272-3 0  9992
2 62773  53.1577 123.6425 0000690 100.2870 259.8208 15.30194490 35436
STARLINK-33574          
1 62774U 25015S   25243.94993837  .00028248  00000+0  96192-3 0  9990
2 62774  53.1584 123.6001 0000968  68.6578 291.4526 15.30210718 35151
STARLINK-33576          
1 62775U 25015T   25243.90995211  .00037351  00000+0  12661-2 0  9998
2 62775  53.1588 124.0636 0001034  58.7824 301.3278 15.30218488 35364
STARLINK-33570          
1 62776U 25015U   25243.94888394  .00044792  00000+0  15159-2 0  9998
2 62776  53.1582 123.5899 0001036  90.8271 269.2848 15.30187813 35372
STARLINK-33591          
1 62777U 25015V   25243.90678404  .00051039  00000+0  17243-2 0  9992
2 62777  53.1575 124.0408 0001286 139.1482 220.9615 15.30186204 35420
STARLINK-33573          
1 62778U 25015W   25243.94255313  .00113356  00000+0  37878-2 0  9994
2 62778  53.1586 123.5491 0001218  66.4204 293.6925 15.30145800 35437
STARLINK-33568          
1 62779U 25015X   25243.96576928  .00021056  00000+0  72067-3 0  9990
2 62779  53.1579 123.6990 0001091  81.8646 278.2479 15.30216682 35277
STARLINK-33593          
1 62780U 25015Y   25243.94677393  .00039777  00000+0  13486-2 0  9996
2 62780  53.1588 123.5763 0001059  70.6478 289.4637 15.30185874 35435
STARLINK-33588          
1 62781U 25015Z   25243.90202750  .00062945  00000+0  21198-2 0  9996
2 62781  53.1586 121.8186 0001214  73.3581 286.7553 15.30194440 35450
STARLINK-33585          
1 62782U 25015AA  25243.93305480  .00046252  00000+0  15635-2 0  9996
2 62782  53.1603 123.4925 0000972  68.0294 292.0810 15.30212098 35155
STARLINK-33582          
1 62783U 25015AB  25243.95626941  .00027970  00000+0  95252-3 0  9997
2 62783  53.1577 123.6358 0000804  50.8289 309.2783 15.30213730 35362
STARLINK-33581          
1 62784U 25015AC  25243.85625770  .00044895  00000+0  15201-2 0  9996
2 62784  53.1599 124.4339 0001368  94.4667 265.6490 15.30172636 35410
QIANFAN-55              
1 62785U 25016A   25243.89975937  .00000115  00000+0  16023-3 0  9996
2 62785  88.9802 113.8313 0015705 289.4052  70.5401 13.50962283 33308
QIANFAN-56              
1 62786U 25016B   25243.91637666  .00000118  00000+0  16430-3 0  9999
2 62786  88.9774 113.6940 0014409 292.3637  67.5987 13.50961281 33350
QIANFAN-57              
1 62787U 25016C   25243.94933495  .00000105  00000+0  14421-3 0  9996
2 62787  88.9806 113.8108 0002699  78.8736 281.2718 13.50962537 33329
QIANFAN-58              
1 62788U 25016D   25243.92054150  .00000052  00000+0  61926-4 0  9991
2 62788  88.9775 113.6773 0012188 284.4636  75.5162 13.50969049 33365
QIANFAN-59              
1 62789U 25016E   25243.93285457  .00000118  00000+0  16392-3 0  9998
2 62789  88.9799 113.7223 0013150 287.7605  72.2111 13.50965925 33362
QIANFAN-60              
1 62790U 25016F   25243.92448203  .00000117  00000+0  16271-3 0  9994
2 62790  88.9780 113.7221 0013572 285.1596  74.8053 13.50963162 33343
QIANFAN-61              
1 62791U 25016G   25243.93694422  .00000113  00000+0  15644-3 0  9991
2 62791  88.9848 113.8088 0013015 283.6938  76.2764 13.50968786 33360
QIANFAN-62              
1 62792U 25016H   25243.94098533  .00000108  00000+0  14866-3 0  9993
2 62792  88.9794 113.7324 0014394 283.7893  76.1656 13.50962787 33358
QIANFAN-63              
1 62793U 25016J   25243.95340453  .00000103  00000+0  14102-3 0  9994
2 62793  88.9800 113.6728 0014277 288.8584  71.1018 13.50959791 33399
QIANFAN-64              
1 62794U 25016K   25243.87102503  .00000114  00000+0  15877-3 0  9990
2 62794  88.9787 113.6752 0012017 282.5905  77.3902 13.50962416 33375
QIANFAN-65              
1 62795U 25016L   25243.92868073  .00000128  00000+0  17955-3 0  9992
2 62795  88.9784 113.6960 0012222 284.4563  75.5232 13.50966365 33365
QIANFAN-66              
1 62796U 25016M   25243.95744261  .00000119  00000+0  16537-3 0  9993
2 62796  88.9803 113.6430 0013272 279.0651  80.8998 13.50961521 33417
QIANFAN-67              
1 62797U 25016N   25243.96149964  .00000120  00000+0  16819-3 0  9999
2 62797  88.9793 113.6781 0013356 286.8026  73.1660 13.50970169 33385
QIANFAN-68              
1 62798U 25016P   25243.89154058  .00000123  00000+0  17147-3 0  9990
2 62798  88.9797 113.7298 0013953 284.9311  75.0295 13.50967642 33357
QIANFAN-69              
1 62799U 25016Q   25243.89569172  .00000119  00000+0  16654-3 0  9995
2 62799  88.9775 113.6180 0014143 285.9953  73.9640 13.50963137 33398
QIANFAN-70              
1 62800U 25016R   25243.91215268  .00000105  00000+0  14383-3 0  9997
2 62800  88.9797 113.7329 0013596 275.2060  84.7540 13.50967070 33358
QIANFAN-71              
1 62801U 25016S   25243.90811790  .00000121  00000+0  16948-3 0  9996
2 62801  88.9790 113.7192 0014128 289.9258  70.0370 13.50966802 33354
QIANFAN-72              
1 62802U 25016T   25243.90393539  .00000118  00000+0  16450-3 0  9997
2 62802  88.9780 113.7381 0017672 296.1816  63.7517 13.50962227 33349
TJS-14                  
1 62804U 25017A   25243.95747250  .00000119  00000+0  00000+0 0  9999
2 62804   1.4846 285.8323 0002578 315.8368 101.7544  1.00272778  2370
STARLINK-32883          
1 62806U 25018A   25243.91146686  .00034507  00000+0  11720-2 0  9996
2 62806  53.1590 111.0211 0000994  74.3754 285.7357 15.30193404 35034
STARLINK-32886          
1 62807U 25018B   25243.91041971  .00044322  00000+0  14983-2 0  9998
2 62807  53.1585 111.0107 0001171  65.9973 294.1150 15.30229492 34121
STARLINK-32848          
1 62808U 25018C   25243.91568482  .00027605  00000+0  94058-3 0  9997
2 62808  53.1583 111.0426 0000968  73.0482 287.0624 15.30203631 34115
STARLINK-32787          
1 62809U 25018D   25243.90829919  .00049114  00000+0  16593-2 0  9998
2 62809  53.1589 110.9979 0000882  76.1879 283.9220 15.30202501 34114
STARLINK-32851          
1 62810U 25018E   25243.91357611  .00027971  00000+0  95314-3 0  9992
2 62810  53.1588 111.0327 0001134  84.5306 275.5824 15.30194431 34112
STARLINK-32847          
1 62811U 25018F   25243.89563799  .00070072  00000+0  23561-2 0  9990
2 62811  53.1592 110.9151 0001188  86.0346 274.0791 15.30195077 34115
STARLINK-32837          
1 62812U 25018G   25243.90513469  .00035495  00000+0  12049-2 0  9991
2 62812  53.1591 110.9882 0001100  89.8523 270.2604 15.30197098 34125
STARLINK-32855          
1 62813U 25018H   25243.89247192  .00024907  00000+0  84959-3 0  9993
2 62813  53.1600 110.8971 0001313  51.9652 308.1467 15.30224650 34116
STARLINK-32843          
1 62814U 25018J   25243.92940659  .00044034  00000+0  14904-2 0  9991
2 62814  53.1579 111.1293 0001079  82.4678 277.6445 15.30193573 34114
STARLINK-32845          
1 62815U 25018K   25243.89880371  .00038964  00000+0  13200-2 0  9995
2 62815  53.1592 110.9363 0001124  75.1383 284.9742 15.30218344 34113
STARLINK-32854          
1 62816U 25018L   25243.92201795  .00018809  00000+0  64537-3 0  9993
2 62816  53.1572 111.0849 0001009  83.7254 276.3862 15.30209237 34105
STARLINK-32824          
1 62817U 25018M   25243.90091212  .00033869  00000+0  11500-2 0  9997
2 62817  53.1587 110.9476 0000914  78.6989 281.4115 15.30211369 35061
STARLINK-32853          
1 62818U 25018N   25243.89459154  .00052065  00000+0  17577-2 0  9998
2 62818  53.1599 110.9083 0001102  80.0965 280.0160 15.30199884 34128
STARLINK-32856          
1 62819U 25018P   25243.91779802  .00046498  00000+0  15726-2 0  9994
2 62819  53.1581 111.0577 0001045  75.9153 284.1963 15.30193253 34128
STARLINK-32844          
1 62820U 25018Q   25243.92096258  .00055016  00000+0  18564-2 0  9993
2 62820  53.1581 111.0722 0000938  86.4935 273.6173 15.30192175 34114
STARLINK-32782          
1 62821U 25018R   25243.90724440  .00034140  00000+0  11595-2 0  9995
2 62821  53.1587 110.9865 0000960  82.0425 278.0685 15.30199296 34127
STARLINK-32842          
1 62822U 25018S   25243.91463215  .00045974  00000+0  15551-2 0  9990
2 62822  53.1588 111.0356 0001033  79.5864 280.5254 15.30193792 34121
STARLINK-32823          
1 62823U 25018T   25243.89774643  .00035645  00000+0  12095-2 0  9992
2 62823  53.1598 110.9280 0000911  71.2006 288.9093 15.30208581 34124
STARLINK-32852          
1 62824U 25018U   25243.92727160 -.00009400  00000+0 -30549-3 0  9996
2 62824  53.1579 111.1143 0000861  43.1267 316.9801 15.30216864 34128
STARLINK-32825          
1 62825U 25018V   25243.94248204  .00031444  00000+0  10696-2 0  9997
2 62825  53.1597 108.3665 0001126  91.3663 268.7467 15.30190655 34150
STARLINK-32704          
1 62826U 25018W   25243.91885709  .00048410  00000+0  16360-2 0  9997
2 62826  53.1586 111.0800 0000842  87.7065 272.4032 15.30199927 34117
STARLINK-32838          
1 62827U 25018X   25243.91668981  .00065580  00000+0  22097-2 0  9990
2 62827  53.1585  72.7912 0001339  92.1821  32.8138 15.30157735  5895
STARLINK-32727          
1 62828U 25018Y   25243.92032044  .00011481  00000+0  39913-3 0  9994
2 62828  53.1581 108.2293 0000954  77.9361 282.1746 15.30201552 35100
